[{"OBJECT_NAME":"BEIDOU-3 M16 (C35)","OBJECT_ID":"2018-078B","EPOCH":"2022-08-19T11:21:35.522784","MEAN_MOTION":1.86232283,"ECCENTRICITY":0.0003797,"INCLINATION":55.0972,"RA_OF_ASC_NODE":348.4409,"ARG_OF_PERICENTER":33.1939,"MEAN_ANOMALY":329.5844,"EPHEMERIS_TYPE":0,"CLASSIFICATION_TYPE":"U","NORAD_CAT_ID":43648,"ELEMENT_SET_NO":999,"REV_AT_EPOCH":2615,"BSTAR":0,"MEAN_MOTION_DOT":-1.22e-6,"MEAN_MOTION_DDOT":0},{"OBJECT_NAME":"BEIDOU-3 G1 (C59)","OBJECT_ID":"2018-085A","EPOCH":"2022-08-19T12:43:21.070272","MEAN_MOTION":1.00272317,"ECCENTRICITY":0.0004482,"INCLINATION":0.9566,"RA_OF_ASC_NODE":156.0296,"ARG_OF_PERICENTER":17.0145,"MEAN_ANOMALY":125.7131,"EPHEMERIS_TYPE":0,"CLASSIFICATION_TYPE":"U","NORAD_CAT_ID":43683,"ELEMENT_SET_NO":999,"REV_AT_EPOCH":1404,"BSTAR":0,"MEAN_MOTION_DOT":-2.84e-6,"MEAN_MOTION_DDOT":0},{"OBJECT_NAME":"BEIDOU-3 M17 (C36)","OBJECT_ID":"2018-093A","EPOCH":"2022-08-19T01:59:38.411808","MEAN_MOTION":1.86232082,"ECCENTRICITY":0.0011241,"INCLINATION":54.3438,"RA_OF_ASC_NODE":229.8291,"ARG_OF_PERICENTER":273.6682,"MEAN_ANOMALY":86.2126,"EPHEMERIS_TYPE":0,"CLASSIFICATION_TYPE":"U","NORAD_CAT_ID":43706,"ELEMENT_SET_NO":999,"REV_AT_EPOCH":2550,"BSTAR":0,"MEAN_MOTION_DOT":7.2e-7,"MEAN_MOTION_DDOT":0},{"OBJECT_NAME":"BEIDOU-3 M18 (C37)","OBJECT_ID":"2018-093B","EPOCH":"2022-08-19T14:27:52.763328","MEAN_MOTION":1.86232215,"ECCENTRICITY":0.0009426,"INCLINATION":54.3432,"RA_OF_ASC_NODE":229.8027,"ARG_OF_PERICENTER":294.4971,"MEAN_ANOMALY":145.0327,"EPHEMERIS_TYPE":0,"CLASSIFICATION_TYPE":"U","NORAD_CAT_ID":43707,"ELEMENT_SET_NO":999,"REV_AT_EPOCH":2550,"BSTAR":0,"MEAN_MOTION_DOT":7.5e-7,"MEAN_MOTION_DDOT":0},{"OBJECT_NAME":"BEIDOU-3 IGSO-1 (C38)","OBJECT_ID":"2019-023A","EPOCH":"2022-08-19T06:47:24.109152","MEAN_MOTION":1.0029048,"ECCENTRICITY":0.0022853,"INCLINATION":56.6496,"RA_OF_ASC_NODE":52.2953,"ARG_OF_PERICENTER":188.3424,"MEAN_ANOMALY":307.2966,"EPHEMERIS_TYPE":0,"CLASSIFICATION_TYPE":"U","NORAD_CAT_ID":44204,"ELEMENT_SET_NO":999,"REV_AT_EPOCH":1234,"BSTAR":0,"MEAN_MOTION_DOT":-2.05e-6,"MEAN_MOTION_DDOT":0},{"OBJECT_NAME":"BEIDOU-2 G8","OBJECT_ID":"2019-027A","EPOCH":"2022-08-19T14:32:08.945376","MEAN_MOTION":1.00274646,"ECCENTRICITY":0.0005735,"INCLINATION":1.0099,"RA_OF_ASC_NODE":78.5286,"ARG_OF_PERICENTER":112.9338,"MEAN_ANOMALY":138.9979,"EPHEMERIS_TYPE":0,"CLASSIFICATION_TYPE":"U","NORAD_CAT_ID":44231,"ELEMENT_SET_NO":999,"REV_AT_EPOCH":1205,"BSTAR":0,"MEAN_MOTION_DOT":-2.53e-6,"MEAN_MOTION_DDOT":0},{"OBJECT_NAME":"BEIDOU-3 IGSO-2 (C39)","OBJECT_ID":"2019-035A","EPOCH":"2022-08-19T05:43:36.291936","MEAN_MOTION":1.00285235,"ECCENTRICITY":0.0026045,"INCLINATION":55.1226,"RA_OF_ASC_NODE":171.1639,"ARG_OF_PERICENTER":193.4857,"MEAN_ANOMALY":167.831,"EPHEMERIS_TYPE":0,"CLASSIFICATION_TYPE":"U","NORAD_CAT_ID":44337,"ELEMENT_SET_NO":999,"REV_AT_EPOCH":1168,"BSTAR":0,"MEAN_MOTION_DOT":-1.36e-6,"MEAN_MOTION_DDOT":0},{"OBJECT_NAME":"BEIDOU-3 M23 (C45)","OBJECT_ID":"2019-061A","EPOCH":"2022-08-19T00:27:40.486176","MEAN_MOTION":1.86231527,"ECCENTRICITY":0.0008679,"INCLINATION":54.5705,"RA_OF_ASC_NODE":229.9859,"ARG_OF_PERICENTER":325.5804,"MEAN_ANOMALY":34.3729,"EPHEMERIS_TYPE":0,"CLASSIFICATION_TYPE":"U","NORAD_CAT_ID":44542,"ELEMENT_SET_NO":999,"REV_AT_EPOCH":1975,"BSTAR":0,"MEAN_MOTION_DOT":7.2e-7,"MEAN_MOTION_DDOT":0},{"OBJECT_NAME":"BEIDOU-3 M24 (C46)","OBJECT_ID":"2019-061B","EPOCH":"2022-08-19T10:00:58.624416","MEAN_MOTION":1.86231782,"ECCENTRICITY":0.0006361,"INCLINATION":54.5674,"RA_OF_ASC_NODE":229.942,"ARG_OF_PERICENTER":307.3992,"MEAN_ANOMALY":230.8708,"EPHEMERIS_TYPE":0,"CLASSIFICATION_TYPE":"U","NORAD_CAT_ID":44543,"ELEMENT_SET_NO":999,"REV_AT_EPOCH":1975,"BSTAR":0,"MEAN_MOTION_DOT":7.4e-7,"MEAN_MOTION_DDOT":0},{"OBJECT_NAME":"BEIDOU-3 IGSO-3","OBJECT_ID":"2019-073A","EPOCH":"2022-08-19T08:19:58.785024","MEAN_MOTION":1.00289461,"ECCENTRICITY":0.0027384,"INCLINATION":57.1624,"RA_OF_ASC_NODE":295.7348,"ARG_OF_PERICENTER":179.9066,"MEAN_ANOMALY":95.9704,"EPHEMERIS_TYPE":0,"CLASSIFICATION_TYPE":"U","NORAD_CAT_ID":44709,"ELEMENT_SET_NO":999,"REV_AT_EPOCH":1042,"BSTAR":0.0001,"MEAN_MOTION_DOT":-1.8e-6,"MEAN_MOTION_DDOT":0},{"OBJECT_NAME":"BEIDOU-3 M21","OBJECT_ID":"2019-078A","EPOCH":"2022-08-19T10:32:37.629888","MEAN_MOTION":1.86232322,"ECCENTRICITY":0.000562,"INCLINATION":54.9499,"RA_OF_ASC_NODE":348.4503,"ARG_OF_PERICENTER":22.9991,"MEAN_ANOMALY":3.1066,"EPHEMERIS_TYPE":0,"CLASSIFICATION_TYPE":"U","NORAD_CAT_ID":44793,"ELEMENT_SET_NO":999,"REV_AT_EPOCH":1862,"BSTAR":0.0001,"MEAN_MOTION_DOT":-1.22e-6,"MEAN_MOTION_DDOT":0},{"OBJECT_NAME":"BEIDOU-3 M22","OBJECT_ID":"2019-078B","EPOCH":"2022-08-19T13:07:22.915200","MEAN_MOTION":1.86232779,"ECCENTRICITY":0.0003556,"INCLINATION":54.924,"RA_OF_ASC_NODE":348.4367,"ARG_OF_PERICENTER":21.4157,"MEAN_ANOMALY":348.5171,"EPHEMERIS_TYPE":0,"CLASSIFICATION_TYPE":"U","NORAD_CAT_ID":44794,"ELEMENT_SET_NO":999,"REV_AT_EPOCH":1862,"BSTAR":0,"MEAN_MOTION_DOT":-1.22e-6,"MEAN_MOTION_DDOT":0},{"OBJECT_NAME":"BEIDOU-3 M19","OBJECT_ID":"2019-090A","EPOCH":"2022-08-19T11:31:04.872864","MEAN_MOTION":1.86231998,"ECCENTRICITY":0.0016268,"INCLINATION":55.4485,"RA_OF_ASC_NODE":109.4448,"ARG_OF_PERICENTER":273.2996,"MEAN_ANOMALY":246.2195,"EPHEMERIS_TYPE":0,"CLASSIFICATION_TYPE":"U","NORAD_CAT_ID":44864,"ELEMENT_SET_NO":999,"REV_AT_EPOCH":1820,"BSTAR":0,"MEAN_MOTION_DOT":-5.8e-7,"MEAN_MOTION_DDOT":0},{"OBJECT_NAME":"BEIDOU-3 M20","OBJECT_ID":"2019-090B","EPOCH":"2022-08-19T08:55:28.034400","MEAN_MOTION":1.86231958,"ECCENTRICITY":0.0014666,"INCLINATION":55.4509,"RA_OF_ASC_NODE":109.4805,"ARG_OF_PERICENTER":288.4444,"MEAN_ANOMALY":248.478,"EPHEMERIS_TYPE":0,"CLASSIFICATION_TYPE":"U","NORAD_CAT_ID":44865,"ELEMENT_SET_NO":999,"REV_AT_EPOCH":1817,"BSTAR":0,"MEAN_MOTION_DOT":-5.8e-7,"MEAN_MOTION_DDOT":0},{"OBJECT_NAME":"BEIDOU-3 G2","OBJECT_ID":"2020-017A","EPOCH":"2022-08-19T12:25:45.455808","MEAN_MOTION":1.00272131,"ECCENTRICITY":0.0004694,"INCLINATION":2.0303,"RA_OF_ASC_NODE":355.2093,"ARG_OF_PERICENTER":140.3736,"MEAN_ANOMALY":98.7267,"EPHEMERIS_TYPE":0,"CLASSIFICATION_TYPE":"U","NORAD_CAT_ID":45344,"ELEMENT_SET_NO":999,"REV_AT_EPOCH":924,"BSTAR":0,"MEAN_MOTION_DOT":-1.45e-6,"MEAN_MOTION_DDOT":0},{"OBJECT_NAME":"BEIDOU-3 G3","OBJECT_ID":"2020-040A","EPOCH":"2022-08-19T12:34:32.843136","MEAN_MOTION":1.00268864,"ECCENTRICITY":0.0007398,"INCLINATION":1.3019,"RA_OF_ASC_NODE":305.0706,"ARG_OF_PERICENTER":329.1024,"MEAN_ANOMALY":352.8427,"EPHEMERIS_TYPE":0,"CLASSIFICATION_TYPE":"U","NORAD_CAT_ID":45807,"ELEMENT_SET_NO":999,"REV_AT_EPOCH":805,"BSTAR":0,"MEAN_MOTION_DOT":-3.58e-6,"MEAN_MOTION_DDOT":0}]